[{"OBJECT_NAME":"STARLINK-2462","OBJECT_ID":"2021-027AF","EPOCH":"2026-03-09T22:54:57.952224","MEAN_MOTION":15.30186477,"ECCENTRICITY":0.00014219,"INCLINATION":53.1605,"RA_OF_ASC_NODE":153.6981,"ARG_OF_PERICENTER":83.1591,"MEAN_ANOMALY":276.9571,"EPHEMERIS_TYPE":0,"CLASSIFICATION_TYPE":"U","NORAD_CAT_ID":48121,"ELEMENT_SET_NO":999,"REV_AT_EPOCH":27269,"BSTAR":0.00010217745,"MEAN_MOTION_DOT":2.667e-5,"MEAN_MOTION_DDOT":0},{"OBJECT_NAME":"CZ-4C R\/B","OBJECT_ID":"2021-079B","EPOCH":"2026-03-09T14:04:29.438112","MEAN_MOTION":15.08928015,"ECCENTRICITY":0.0108377,"INCLINATION":98.3883,"RA_OF_ASC_NODE":282.6111,"ARG_OF_PERICENTER":26.1585,"MEAN_ANOMALY":334.506,"EPHEMERIS_TYPE":0,"CLASSIFICATION_TYPE":"U","NORAD_CAT_ID":49123,"ELEMENT_SET_NO":999,"REV_AT_EPOCH":24640,"BSTAR":0.00023549,"MEAN_MOTION_DOT":4.178e-5,"MEAN_MOTION_DDOT":0}]
